STARLINK-37366          
1 68807U 26089F   26117.53957912 -.00821863  23404-3 -14183-2 0  9997
2 68807  97.2862 322.6876 0000573 332.6434  27.4815 16.02366906   713
