{
  "norad_id": 68807,
  "name": "STARLINK-37366",
  "history": [
    {
      "epoch": "2026-04-27T12:56:59.635968Z",
      "apogee_km": 268.2473702571451,
      "perigee_km": 267.48454203783785,
      "latitude_deg": -3.5221348572314174e-05,
      "longitude_deg": -87.08881423004934,
      "height_km": 270.7321472203823,
      "semi_major_axis_km": 6646.002956147491,
      "eccentricity": 5.739e-05,
      "inclination_deg": 97.2862,
      "raan_deg": 322.6876,
      "arg_perigee_deg": 332.6434,
      "mean_anomaly_deg": 27.4815,
      "mean_motion_rev_day": 16.02366906
    }
  ]
}